{"type": "FeatureCollection", "features": [ {"type": "Feature", "properties": {"norad_id": 34571, "name": "COSMOS 2251 DEB", "group": "cosmos-2251-debris", "lat": 73.84363357117572, "lon": -94.03459908766496, "alt_km": 735.5499011088386, "timestamp": "2025-12-20T22:39:11.019603+00:00", "meta": {"OBJECT_NAME": "COSMOS 2251 DEB", "OBJECT_ID": "1993-036VH", "EPOCH": "2025-12-18T22:10:04.528128", "MEAN_MOTION": 14.48905766, "ECCENTRICITY": 0.0065409, "INCLINATION": 74.0384, "RA_OF_ASC_NODE": 170.8432, "ARG_OF_PERICENTER": 204.4185, "MEAN_ANOMALY": 155.3874, "EPHEMERIS_TYPE": 0, "CLASSIFICATION_TYPE": "U", "NORAD_CAT_ID": 34571, "ELEMENT_SET_NO": 999, "REV_AT_EPOCH": 87383, "BSTAR": 0.0018317465, "MEAN_MOTION_DOT": 7.102e-05, "MEAN_MOTION_DDOT": 0}, "tle": {"line1": "1 34571U 93036VH  25352.92366352  .00007102  00000+0  18317-2 0  9995", "line2": "2 34571  74.0384 170.8432 0065409 204.4185 155.3874 14.48905766873833"}}, "geometry": {"type": "Point", "coordinates": [-94.03459908766496, 73.84363357117572]}}, {"type": "Feature", "properties": {"norad_id": 34572, "name": "COSMOS 2251 DEB", "group": "cosmos-2251-debris", "lat": -8.081186854002754, "lon": 97.74004764517427, "alt_km": 772.7719588292475, "timestamp": "2025-12-20T22:39:11.019612+00:00", "meta": {"OBJECT_NAME": "COSMOS 2251 DEB", "OBJECT_ID": "1993-036VJ", "EPOCH": "2025-12-19T08:52:33.083040", "MEAN_MOTION": 14.50137544, "ECCENTRICITY": 0.0061983, "INCLINATION": 74.0111, "RA_OF_ASC_NODE": 103.0332, "ARG_OF_PERICENTER": 175.7717, "MEAN_ANOMALY": 241.8877, "EPHEMERIS_TYPE": 0, "CLASSIFICATION_TYPE": "U", "NORAD_CAT_ID": 34572, "ELEMENT_SET_NO": 999, "REV_AT_EPOCH": 87474, "BSTAR": 0.0016719, "MEAN_MOTION_DOT": 6.633e-05, "MEAN_MOTION_DDOT": 0}, "tle": {"line1": "1 34572U 93036VJ  25353.36982735  .00006633  00000+0  16719-2 0  9996", "line2": "2 34572  74.0111 103.0332 0061983 175.7717 241.8877 14.50137544874742"}}, "geometry": {"type": "Point", "coordinates": [97.74004764517427, -8.081186854002754]}}, {"type": "Feature", "properties": {"norad_id": 34574, "name": "COSMOS 2251 DEB", "group": "cosmos-2251-debris", "lat": 50.86053320856719, "lon": -173.30760093154586, "alt_km": 645.8122603565953, "timestamp": "2025-12-20T22:39:11.019621+00:00", "meta": {"OBJECT_NAME": "COSMOS 2251 DEB", "OBJECT_ID": "1993-036VL", "EPOCH": "2025-12-20T12:58:04.787616", "MEAN_MOTION": 14.70679632, "ECCENTRICITY": 0.00671146, "INCLINATION": 74.0681, "RA_OF_ASC_NODE": 28.0222, "ARG_OF_PERICENTER": 46.4918, "MEAN_ANOMALY": 103.2612, "EPHEMERIS_TYPE": 0, "CLASSIFICATION_TYPE": "U", "NORAD_CAT_ID": 34574, "ELEMENT_SET_NO": 999, "REV_AT_EPOCH": 88893, "BSTAR": 0.00054715328, "MEAN_MOTION_DOT": 3.419e-05, "MEAN_MOTION_DDOT": 0}, "tle": {"line1": "1 34574U 93036VL  25354.54033319  .00003419  00000+0  54715-3 0  9992", "line2": "2 34574  74.0681  28.0222 0067114  46.4918 103.2612 14.70679632888934"}}, "geometry": {"type": "Point", "coordinates": [-173.30760093154586, 50.86053320856719]}}, {"type": "Feature", "properties": {"norad_id": 34576, "name": "COSMOS 2251 DEB", "group": "cosmos-2251-debris", "lat": 6.3981289023659, "lon": 124.49448561776971, "alt_km": 711.3039707374492, "timestamp": "2025-12-20T22:39:11.019630+00:00", "meta": {"OBJECT_NAME": "COSMOS 2251 DEB", "OBJECT_ID": "1993-036VN", "EPOCH": "2025-12-19T15:21:26.249760", "MEAN_MOTION": 14.55469677, "ECCENTRICITY": 0.0008223, "INCLINATION": 74.0343, "RA_OF_ASC_NODE": 125.1243, "ARG_OF_PERICENTER": 262.3221, "MEAN_ANOMALY": 114.6335, "EPHEMERIS_TYPE": 0, "CLASSIFICATION_TYPE": "U", "NORAD_CAT_ID": 34576, "ELEMENT_SET_NO": 999, "REV_AT_EPOCH": 88567, "BSTAR": 0.00058339, "MEAN_MOTION_DOT": 2.511e-05, "MEAN_MOTION_DDOT": 0}, "tle": {"line1": "1 34576U 93036VN  25353.63988715  .00002511  00000+0  58339-3 0  9990", "line2": "2 34576  74.0343 125.1243 0008223 262.3221 114.6335 14.55469677885670"}}, "geometry": {"type": "Point", "coordinates": [124.49448561776971, 6.3981289023659]}}, {"type": "Feature", "properties": {"norad_id": 34579, "name": "COSMOS 2251 DEB", "group": "cosmos-2251-debris", "lat": -67.70257344400123, "lon": 164.40692596316933, "alt_km": 728.5382292278337, "timestamp": "2025-12-20T22:39:11.019639+00:00", "meta": {"OBJECT_NAME": "COSMOS 2251 DEB", "OBJECT_ID": "1993-036VR", "EPOCH": "2025-12-20T09:59:46.452768", "MEAN_MOTION": 14.45327608, "ECCENTRICITY": 0.00275259, "INCLINATION": 74.0517, "RA_OF_ASC_NODE": 209.6009, "ARG_OF_PERICENTER": 277.1074, "MEAN_ANOMALY": 145.7786, "EPHEMERIS_TYPE": 0, "CLASSIFICATION_TYPE": "U", "NORAD_CAT_ID": 34579, "ELEMENT_SET_NO": 999, "REV_AT_EPOCH": 88285, "BSTAR": 0.00026622829, "MEAN_MOTION_DOT": 9.13e-06, "MEAN_MOTION_DDOT": 0}, "tle": {"line1": "1 34579U 93036VR  25354.41650987  .00000913  00000+0  26623-3 0  9992", "line2": "2 34579  74.0517 209.6009 0027525 277.1074 145.7786 14.45327608882858"}}, "geometry": {"type": "Point", "coordinates": [164.40692596316933, -67.70257344400123]}}, {"type": "Feature", "properties": {"norad_id": 34582, "name": "COSMOS 2251 DEB", "group": "cosmos-2251-debris", "lat": 13.407754086200752, "lon": 73.20348316548093, "alt_km": 780.533785259433, "timestamp": "2025-12-20T22:39:11.019648+00:00", "meta": {"OBJECT_NAME": "COSMOS 2251 DEB", "OBJECT_ID": "1993-036VU", "EPOCH": "2025-12-20T03:35:24.026496", "MEAN_MOTION": 14.43360763, "ECCENTRICITY": 0.0048271, "INCLINATION": 74.0201, "RA_OF_ASC_NODE": 258.5968, "ARG_OF_PERICENTER": 7.1038, "MEAN_ANOMALY": 353.0791, "EPHEMERIS_TYPE": 0, "CLASSIFICATION_TYPE": "U", "NORAD_CAT_ID": 34582, "ELEMENT_SET_NO": 999, "REV_AT_EPOCH": 88054, "BSTAR": 0.00052710353, "MEAN_MOTION_DOT": 1.776e-05, "MEAN_MOTION_DDOT": 0}, "tle": {"line1": "1 34582U 93036VU  25354.14958364  .00001776  00000+0  52710-3 0  9990", "line2": "2 34582  74.0201 258.5968 0048271   7.1038 353.0791 14.43360763880542"}}, "geometry": {"type": "Point", "coordinates": [73.20348316548093, 13.407754086200752]}}, {"type": "Feature", "properties": {"norad_id": 34588, "name": "COSMOS 2251 DEB", "group": "cosmos-2251-debris", "lat": -1.7291373149302618, "lon": 73.548746023498, "alt_km": 762.0865815007155, "timestamp": "2025-12-20T22:39:11.019657+00:00", "meta": {"OBJECT_NAME": "COSMOS 2251 DEB", "OBJECT_ID": "1993-036WA", "EPOCH": "2025-12-20T04:02:10.436640", "MEAN_MOTION": 14.42041943, "ECCENTRICITY": 0.0019279, "INCLINATION": 74.0429, "RA_OF_ASC_NODE": 254.4907, "ARG_OF_PERICENTER": 306.4154, "MEAN_ANOMALY": 170.1426, "EPHEMERIS_TYPE": 0, "CLASSIFICATION_TYPE": "U", "NORAD_CAT_ID": 34588, "ELEMENT_SET_NO": 999, "REV_AT_EPOCH": 88057, "BSTAR": 0.00029791922, "MEAN_MOTION_DOT": 9.54e-06, "MEAN_MOTION_DDOT": 0}, "tle": {"line1": "1 34588U 93036WA  25354.16817635  .00000954  00000+0  29792-3 0  9994", "line2": "2 34588  74.0429 254.4907 0019279 306.4154 170.1426 14.42041943880579"}}, "geometry": {"type": "Point", "coordinates": [73.548746023498, -1.7291373149302618]}}, {"type": "Feature", "properties": {"norad_id": 34589, "name": "COSMOS 2251 DEB", "group": "cosmos-2251-debris", "lat": 6.481306142629728, "lon": -139.8250469453929, "alt_km": 1126.2736826399941, "timestamp": "2025-12-20T22:39:11.019666+00:00", "meta": {"OBJECT_NAME": "COSMOS 2251 DEB", "OBJECT_ID": "1993-036WB", "EPOCH": "2025-12-20T09:45:54.550368", "MEAN_MOTION": 13.86060519, "ECCENTRICITY": 0.02523501, "INCLINATION": 73.9249, "RA_OF_ASC_NODE": 42.9668, "ARG_OF_PERICENTER": 344.7438, "MEAN_ANOMALY": 30.3896, "EPHEMERIS_TYPE": 0, "CLASSIFICATION_TYPE": "U", "NORAD_CAT_ID": 34589, "ELEMENT_SET_NO": 999, "REV_AT_EPOCH": 84818, "BSTAR": 0.00031653081, "MEAN_MOTION_DOT": 4.43e-06, "MEAN_MOTION_DDOT": 0}, "tle": {"line1": "1 34589U 93036WB  25354.40688137  .00000443  00000+0  31653-3 0  9997", "line2": "2 34589  73.9249  42.9668 0252350 344.7438  30.3896 13.86060519848187"}}, "geometry": {"type": "Point", "coordinates": [-139.8250469453929, 6.481306142629728]}}, {"type": "Feature", "properties": {"norad_id": 34590, "name": "COSMOS 2251 DEB", "group": "cosmos-2251-debris", "lat": 25.61621864610546, "lon": -45.0837017563645, "alt_km": 675.967049070432, "timestamp": "2025-12-20T22:39:11.019675+00:00", "meta": {"OBJECT_NAME": "COSMOS 2251 DEB", "OBJECT_ID": "1993-036WC", "EPOCH": "2025-12-19T05:33:46.179072", "MEAN_MOTION": 14.5483298, "ECCENTRICITY": 0.0067997, "INCLINATION": 74.0441, "RA_OF_ASC_NODE": 310.2692, "ARG_OF_PERICENTER": 77.9732, "MEAN_ANOMALY": 346.1753, "EPHEMERIS_TYPE": 0, "CLASSIFICATION_TYPE": "U", "NORAD_CAT_ID": 34590, "ELEMENT_SET_NO": 999, "REV_AT_EPOCH": 89215, "BSTAR": 0.00010011, "MEAN_MOTION_DOT": 4.13e-06, "MEAN_MOTION_DDOT": 0}, "tle": {"line1": "1 34590U 93036WC  25353.23178448  .00000413  00000+0  10011-3 0  9990", "line2": "2 34590  74.0441 310.2692 0067997  77.9732 346.1753 14.54832980892157"}}, "geometry": {"type": "Point", "coordinates": [-45.0837017563645, 25.61621864610546]}}, {"type": "Feature", "properties": {"norad_id": 34609, "name": "COSMOS 2251 DEB", "group": "cosmos-2251-debris", "lat": -71.66973677208074, "lon": -26.470866255203738, "alt_km": 755.8596806173518, "timestamp": "2025-12-20T22:39:11.019684+00:00", "meta": {"OBJECT_NAME": "COSMOS 2251 DEB", "OBJECT_ID": "1993-036WE", "EPOCH": "2025-12-20T13:02:49.887744", "MEAN_MOTION": 14.21817588, "ECCENTRICITY": 0.01455841, "INCLINATION": 73.7329, "RA_OF_ASC_NODE": 92.459, "ARG_OF_PERICENTER": 310.7374, "MEAN_ANOMALY": 64.0631, "EPHEMERIS_TYPE": 0, "CLASSIFICATION_TYPE": "U", "NORAD_CAT_ID": 34609, "ELEMENT_SET_NO": 999, "REV_AT_EPOCH": 86743, "BSTAR": 0.0005190669, "MEAN_MOTION_DOT": 1.244e-05, "MEAN_MOTION_DDOT": 0}, "tle": {"line1": "1 34609U 93036WE  25354.54363296  .00001244  00000+0  51907-3 0  9995", "line2": "2 34609  73.7329  92.4590 0145584 310.7374  64.0631 14.21817588867439"}}, "geometry": {"type": "Point", "coordinates": [-26.470866255203738, -71.66973677208074]}}]}